INMARSAT 3-F5           
1 25153U 98006B   17346.22071806 -.00000293  00000-0  00000+0 0  9990
2 25153   2.9307  73.7947 0004812 195.6678 197.0757  1.00268090 72712
